{
  "norad_id": 43912,
  "name": "YUNHAI-2 01D",
  "history": [
    {
      "epoch": "2026-04-10T13:43:30.467424Z",
      "apogee_km": 806.2341924507336,
      "perigee_km": 783.8810833201542,
      "latitude_deg": -5.934852807058993e-05,
      "longitude_deg": 169.7679005754727,
      "height_km": 799.178369807017,
      "semi_major_axis_km": 7173.194637885444,
      "eccentricity": 0.0015581,
      "inclination_deg": 50.0098,
      "raan_deg": 214.4487,
      "arg_perigee_deg": 108.9073,
      "mean_anomaly_deg": 251.3532,
      "mean_motion_rev_day": 14.29005299
    },
    {
      "epoch": "2026-04-11T19:56:07.093824Z",
      "apogee_km": 806.2273176737126,
      "perigee_km": 783.8856891879277,
      "latitude_deg": 1.725358858077659e-05,
      "longitude_deg": 70.03176441443576,
      "height_km": 799.9779887960717,
      "semi_major_axis_km": 7173.19350343082,
      "eccentricity": 0.0015573,
      "inclination_deg": 50.0098,
      "raan_deg": 209.1058,
      "arg_perigee_deg": 113.3138,
      "mean_anomaly_deg": 246.9418,
      "mean_motion_rev_day": 14.29005638
    },
    {
      "epoch": "2026-04-13T07:10:49.744704Z",
      "apogee_km": 806.2214458290146,
      "perigee_km": 783.8887165311517,
      "latitude_deg": 2.595036040750167e-05,
      "longitude_deg": -106.32710906840614,
      "height_km": 800.8884280700925,
      "semi_major_axis_km": 7173.192081180083,
      "eccentricity": 0.00155668,
      "inclination_deg": 50.0096,
      "raan_deg": 202.8721,
      "arg_perigee_deg": 118.5168,
      "mean_anomaly_deg": 241.7317,
      "mean_motion_rev_day": 14.29006063
    },
    {
      "epoch": "2026-04-14T18:25:32.316096Z",
      "apogee_km": 806.2142754508368,
      "perigee_km": 783.8927412269877,
      "latitude_deg": 4.348185952600315e-05,
      "longitude_deg": 77.31445909555009,
      "height_km": 801.7543755092338,
      "semi_major_axis_km": 7173.190508338912,
      "eccentricity": 0.0015559,
      "inclination_deg": 50.0094,
      "raan_deg": 196.6385,
      "arg_perigee_deg": 123.7238,
      "mean_anomaly_deg": 236.5163,
      "mean_motion_rev_day": 14.29006533
    },
    {
      "epoch": "2026-04-15T17:55:20.668800Z",
      "apogee_km": 806.2098509370153,
      "perigee_km": 783.8954925062244,
      "latitude_deg": -1.5314009388501586e-05,
      "longitude_deg": 79.74226444886774,
      "height_km": 802.2977055215458,
      "semi_major_axis_km": 7173.18967172162,
      "eccentricity": 0.0015554,
      "inclination_deg": 50.0093,
      "raan_deg": 192.4828,
      "arg_perigee_deg": 127.1568,
      "mean_anomaly_deg": 233.077,
      "mean_motion_rev_day": 14.29006783
    },
    {
      "epoch": "2026-04-16T17:25:09.004224Z",
      "apogee_km": 806.2023560485586,
      "perigee_km": 783.9009125844696,
      "latitude_deg": 5.565140374909183e-06,
      "longitude_deg": 82.1702085114255,
      "height_km": 802.8190083744166,
      "semi_major_axis_km": 7173.188634316514,
      "eccentricity": 0.0015545,
      "inclination_deg": 50.0093,
      "raan_deg": 188.3271,
      "arg_perigee_deg": 130.6201,
      "mean_anomaly_deg": 229.6069,
      "mean_motion_rev_day": 14.29007093
    },
    {
      "epoch": "2026-04-17T21:57:03.389184Z",
      "apogee_km": 806.1881773804816,
      "perigee_km": 783.9125613236956,
      "latitude_deg": -1.1849843689750132e-05,
      "longitude_deg": 7.975533252707799,
      "height_km": 803.4104381437531,
      "semi_major_axis_km": 7173.187369352088,
      "eccentricity": 0.0015527,
      "inclination_deg": 50.0093,
      "raan_deg": 183.2808,
      "arg_perigee_deg": 134.8147,
      "mean_anomaly_deg": 225.4033,
      "mean_motion_rev_day": 14.29007471
    },
    {
      "epoch": "2026-04-18T16:24:45.623232Z",
      "apogee_km": 806.1830791247385,
      "perigee_km": 783.9160733547751,
      "latitude_deg": 1.830083402299858e-05,
      "longitude_deg": 87.02618692394438,
      "height_km": 803.774378200908,
      "semi_major_axis_km": 7173.1865762397565,
      "eccentricity": 0.0015521,
      "inclination_deg": 50.0093,
      "raan_deg": 180.0156,
      "arg_perigee_deg": 137.5377,
      "mean_anomaly_deg": 222.6742,
      "mean_motion_rev_day": 14.29007708
    },
    {
      "epoch": "2026-04-19T15:54:33.904224Z",
      "apogee_km": 806.1728289256216,
      "perigee_km": 783.9244763054694,
      "latitude_deg": -2.3586073502301634e-06,
      "longitude_deg": 89.45422103335822,
      "height_km": 804.2092093878399,
      "semi_major_axis_km": 7173.185652615545,
      "eccentricity": 0.0015508,
      "inclination_deg": 50.0093,
      "raan_deg": 175.8598,
      "arg_perigee_deg": 141.0181,
      "mean_anomaly_deg": 219.1855,
      "mean_motion_rev_day": 14.29007984
    },
    {
      "epoch": "2026-04-20T13:43:40.143360Z",
      "apogee_km": 806.1672781674324,
      "perigee_km": 783.9282534380145,
      "latitude_deg": 2.5054043746061963e-05,
      "longitude_deg": 117.42319597847455,
      "height_km": 804.583917042915,
      "semi_major_axis_km": 7173.184765802724,
      "eccentricity": 0.00155015,
      "inclination_deg": 50.0093,
      "raan_deg": 172.0008,
      "arg_perigee_deg": 144.2227,
      "mean_anomaly_deg": 215.973,
      "mean_motion_rev_day": 14.29008249
    },
    {
      "epoch": "2026-04-21T19:56:16.419840Z",
      "apogee_km": 806.1611777405715,
      "perigee_km": 783.931482600372,
      "latitude_deg": 5.016794085690188e-05,
      "longitude_deg": 17.688278043030746,
      "height_km": 805.0581495343002,
      "semi_major_axis_km": 7173.183330170471,
      "eccentricity": 0.0015495,
      "inclination_deg": 50.0091,
      "raan_deg": 166.6577,
      "arg_perigee_deg": 148.6738,
      "mean_anomaly_deg": 211.5104,
      "mean_motion_rev_day": 14.29008678
    },
    {
      "epoch": "2026-04-22T21:06:46.609632Z",
      "apogee_km": 806.161412487756,
      "perigee_km": 783.9288517874083,
      "latitude_deg": 8.088265801552536e-06,
      "longitude_deg": -5.4241531251426665,
      "height_km": 805.4124793965166,
      "semi_major_axis_km": 7173.182132137582,
      "eccentricity": 0.0015497,
      "inclination_deg": 50.0089,
      "raan_deg": 162.205,
      "arg_perigee_deg": 152.3651,
      "mean_anomaly_deg": 207.8091,
      "mean_motion_rev_day": 14.29009036
    },
    {
      "epoch": "2026-04-23T13:53:46.717152Z",
      "apogee_km": 806.1652337925971,
      "perigee_km": 783.9233505599459,
      "latitude_deg": -5.404853136389946e-06,
      "longitude_deg": 99.16761806094232,
      "height_km": 805.6288935642438,
      "semi_major_axis_km": 7173.181292176271,
      "eccentricity": 0.00155035,
      "inclination_deg": 50.0088,
      "raan_deg": 159.2365,
      "arg_perigee_deg": 154.8197,
      "mean_anomaly_deg": 205.3477,
      "mean_motion_rev_day": 14.29009287
    },
    {
      "epoch": "2026-04-24T15:04:16.840416Z",
      "apogee_km": 806.1532574083021,
      "perigee_km": 783.932181273728,
      "latitude_deg": -5.835988854653964e-06,
      "longitude_deg": 76.05540086896283,
      "height_km": 805.9040808085076,
      "semi_major_axis_km": 7173.179719341015,
      "eccentricity": 0.0015489,
      "inclination_deg": 50.0099,
      "raan_deg": 154.7837,
      "arg_perigee_deg": 158.5211,
      "mean_anomaly_deg": 201.6357,
      "mean_motion_rev_day": 14.29009757
    },
    {
      "epoch": "2026-04-25T14:34:04.922688Z",
      "apogee_km": 806.1496072719656,
      "perigee_km": 783.9328396782184,
      "latitude_deg": -1.5215957028760487e-05,
      "longitude_deg": 78.48417512244698,
      "height_km": 806.1285769563823,
      "semi_major_axis_km": 7173.178223475092,
      "eccentricity": 0.0015486,
      "inclination_deg": 50.0098,
      "raan_deg": 150.6278,
      "arg_perigee_deg": 161.9763,
      "mean_anomaly_deg": 198.1704,
      "mean_motion_rev_day": 14.29010204
    },
    {
      "epoch": "2026-04-26T22:27:23.000832Z",
      "apogee_km": 806.1374163921837,
      "perigee_km": 783.9414565448187,
      "latitude_deg": -2.6749422469582556e-05,
      "longitude_deg": -46.790967811345396,
      "height_km": 806.365113738701,
      "semi_major_axis_km": 7173.176436468501,
      "eccentricity": 0.00154715,
      "inclination_deg": 50.0084,
      "raan_deg": 144.9876,
      "arg_perigee_deg": 166.6842,
      "mean_anomaly_deg": 193.4484,
      "mean_motion_rev_day": 14.29010738
    }
  ]
}